LANDSAT 9               
1 49260U 21088A   24123.16235293  .00000663  00000+0  15704-3 0  9997
2 49260  98.1889 193.5557 0001300  90.2773 269.8574 14.57121236137984
